{"spkid": "50309309", "covariance": {"epoch": "2460282.5", "data": [["1.897495006189505E-12", "-3.237512946697479E-12", "-3.259752350656406E-10", "1.345528180694682E-10", "-4.746832803197211E-10", "8.033543359318411E-11"], ["-3.237512946697479E-12", "5.523908012301405E-12", "5.571240413298533E-10", "-2.295906244453551E-10", "8.102468178091901E-10", "-1.371654523099427E-10"], ["-3.259752350656406E-10", "5.571240413298533E-10", "7.408602521149546E-8", "-2.359610171732564E-8", "8.828150893646765E-8", "-1.568840409172074E-8"], ["1.345528180694682E-10", "-2.295906244453551E-10", "-2.359610171732564E-8", "1.515032970628063E-8", "-3.912129753198706E-8", "7.250544944597599E-9"], ["-4.746832803197211E-10", "8.102468178091901E-10", "8.828150893646765E-8", "-3.912129753198706E-8", "1.262939239960351E-7", "-2.221591595076192E-8"], ["8.033543359318411E-11", "-1.371654523099427E-10", "-1.568840409172074E-8", "7.250544944597599E-9", "-2.221591595076192E-8", "4.078475841967317E-9"]], "elements": [{"label": "e", "name": "e", "sigma": 1.37749591875602e-06, "units": null, "value": ".5288333100127484", "title": "eccentricity"}, {"name": "q", "sigma": 2.35029955799285e-06, "title": "perihelion distance", "value": ".7986217840374791", "units": "au", "label": "q"}, {"label": "tp", "sigma": 0.000272187481731794, "name": "tp", "value": "2460114.049362390926", "title": "time of perihelion passage", "units": "TDB"}, {"label": "node", "units": "deg", "title": "longitude of the ascending node", "value": "56.3111702580111", "name": "om", "sigma": 0.000123086675583837}, {"label": "peri", "title": "argument of perihelion", "value": "298.3783752549382", "units": "deg", "sigma": 0.000355378564345171, "name": "w"}, {"label": "i", "title": "inclination", "value": "17.3720914326096", "units": "deg", "name": "i", "sigma": 6.38629457664405e-05}], "labels": ["e", "q", "tp", "node", "peri", "i"]}, "elements": [{"name": "e", "sigma": "1.3793E-6", "title": "eccentricity", "value": ".528728506180986", "units": null, "label": "e"}, {"label": "a", "title": "semi-major axis", "value": "1.6952255693095", "units": "au", "sigma": "3.1337E-8", "name": "a"}, {"label": "q", "units": "au", "value": ".7989114864086764", "title": "perihelion distance", "name": "q", "sigma": "2.351E-6"}, {"units": "deg", "value": "17.36835316194351", "title": "inclination; angle with respect to x-y ecliptic plane", "name": "i", "sigma": "6.3835E-5", "label": "i"}, {"label": "node", "sigma": ".00012311", "name": "om", "title": "longitude of the ascending node", "value": "56.28579341903508", "units": "deg"}, {"sigma": ".00035556", "name": "w", "title": "argument of perihelion", "value": "298.3858645204872", "units": "deg", "label": "peri"}, {"label": "M", "name": "ma", "sigma": ".00013673", "title": "mean anomaly", "value": "125.182400556744", "units": "deg"}, {"label": "tp", "sigma": ".00029847", "name": "tp", "units": "TDB", "title": "time of perihelion passage", "value": "2460920.162986071798"}, {"sigma": "2.2354E-5", "name": "per", "units": "d", "title": "sidereal orbital period", "value": "806.1941979488254", "label": "period"}, {"name": "n", "sigma": "1.2382E-8", "units": "deg/d", "title": "mean motion", "value": ".446542533940255", "label": "n"}, {"label": "Q", "name": "ad", "sigma": "4.7905E-8", "value": "2.591539652210323", "title": "aphelion distance", "units": "au"}], "epoch": "2461200.5"}